NORAD_CAT_ID,OBJECT_NAME,OBJECT_TYPE,EPOCH,MEAN_MOTION,ECCENTRICITY,INCLINATION,RA_OF_ASC_NODE,ARG_OF_PERICENTER,MEAN_ANOMALY,BSTAR,MEAN_MOTION_DOT,MEAN_MOTION_DDOT,TLE_LINE0,TLE_LINE1,TLE_LINE2,SEMIMAJOR_AXIS,PERIOD,APOGEE,PERIGEE,DECAYED
53604.0,STARLINK-4690,PAYLOAD,2024-04-09 08:53:23,15.08842088,0.0001446,53.2137,138.343,87.4265,272.6892,0.00030086,4.504e-05,0.0,0 STARLINK-4690,1 53604U 22104S   24100.37041245  .00004504  00000-0  30086-3 0  9993,2 53604  53.2137 138.3430 0001446  87.4265 272.6892 15.08842088 89423,6917.874,95.437,540.739,538.739,0.0
53604.0,STARLINK-4690,PAYLOAD,2024-04-10 11:54:57,15.0884268,0.0001393,53.2142,133.2875,86.0223,274.0928,0.00029183,4.36e-05,0.0,0 STARLINK-4690,1 53604U 22104S   24101.49649850  .00004360  00000-0  29183-3 0  9999,2 53604  53.2142 133.2875 0001393  86.0223 274.0928 15.08842680 89598,6917.872,95.437,540.701,538.774,0.0
53604.0,STARLINK-4690,PAYLOAD,2024-04-11 05:24:10,15.08860333,0.0001411,53.2149,130.0164,85.6326,274.4828,0.00029584,4.426e-05,0.0,0 STARLINK-4690,1 53604U 22104S   24102.22512543  .00004426  00000-0  29584-3 0  9997,2 53604  53.2149 130.0164 0001411  85.6326 274.4828 15.08860333 89702,6917.818,95.436,540.659,538.707,0.0
53604.0,STARLINK-4690,PAYLOAD,2024-04-11 08:34:57,15.08863184,0.0001338,53.2152,129.4225,80.1024,280.0119,0.00039757,6.049e-05,0.0,0 STARLINK-4690,1 53604U 22104S   24102.35760461  .00006049  00000-0  39757-3 0  9991,2 53604  53.2152 129.4225 0001338  80.1024 280.0119 15.08863184 90412,6917.81,95.436,540.6,538.749,0.0
53604.0,STARLINK-4690,PAYLOAD,2024-04-12 05:14:56,15.08861039,0.0001332,53.2152,125.5572,79.3718,280.7424,0.00015203,2.134e-05,0.0,0 STARLINK-4690,1 53604U 22104S   24103.21871503  .00002134  00000-0  15203-3 0  9998,2 53604  53.2152 125.5572 0001332  79.3718 280.7424 15.08861039 89857,6917.816,95.436,540.603,538.76,0.0
53604.0,STARLINK-4690,PAYLOAD,2024-04-12 08:25:42,15.08887629,0.0001426,53.2152,124.962,90.1155,270.0001,0.00061728,9.562e-05,0.0,0 STARLINK-4690,1 53604U 22104S   24103.35118149  .00009562  00000-0  61728-3 0  9998,2 53604  53.2152 124.9620 0001426  90.1155 270.0001 15.08887629 89872,6917.735,95.435,540.586,538.613,0.0
53604.0,STARLINK-4690,PAYLOAD,2024-04-13 05:05:43,15.08843596,0.0001621,53.2161,121.0997,112.733,247.3833,-0.00018631,-3.252e-05,0.0,0 STARLINK-4690,1 53604U 22104S   24104.21231197 -.00003252  00000-0 -18631-3 0  9990,2 53604  53.2161 121.0997 0001621 112.7330 247.3833 15.08843596 90002,6917.869,95.437,540.856,538.613,0.0
53604.0,STARLINK-4690,PAYLOAD,2024-04-13 09:51:53,15.08834692,0.0001271,53.2149,120.203,94.567,265.5467,-0.00028732,-4.857e-05,0.0,0 STARLINK-4690,1 53604U 22104S   24104.41103796 -.00004857  00000-0 -28732-3 0  9990,2 53604  53.2149 120.2030 0001271  94.5670 265.5467 15.08834692 90037,6917.897,95.438,540.641,538.882,0.0
53604.0,STARLINK-4690,PAYLOAD,2024-04-14 09:42:41,15.08832028,0.0001334,53.2153,115.742,90.6287,269.4858,3.9535e-05,3.41e-06,0.0,0 STARLINK-4690,1 53604U 22104S   24105.40464468  .00000341  00000-0  39535-4 0  9992,2 53604  53.2153 115.7420 0001334  90.6287 269.4858 15.08832028 90875,6917.905,95.438,540.693,538.847,0.0
53604.0,STARLINK-4690,PAYLOAD,2024-04-15 04:47:18,15.08849971,0.0001276,53.215,112.1742,89.9386,270.1752,0.00065094,0.0001009,0.0,0 STARLINK-4690,1 53604U 22104S   24106.19952504  .00010090  00000-0  65094-3 0  9992,2 53604  53.2150 112.1742 0001276  89.9386 270.1752 15.08849971 90301,6917.85,95.437,540.598,538.832,0.0
53604.0,STARLINK-4690,PAYLOAD,2024-04-15 07:58:05,15.08859216,0.0001338,53.2153,111.5795,88.8537,271.2608,0.00086084,0.00013446,0.0,0 STARLINK-4690,1 53604U 22104S   24106.33200329  .00013446  00000-0  86084-3 0  9999,2 53604  53.2153 111.5795 0001338  88.8537 271.2608 15.08859216 91014,6917.822,95.436,540.612,538.761,0.0
53604.0,STARLINK-4690,PAYLOAD,2024-04-16 04:38:05,15.08853807,0.0001472,53.2156,107.7141,97.4774,262.6386,0.00039111,5.944e-05,0.0,0 STARLINK-4690,1 53604U 22104S   24107.19311859  .00005944  00000-0  39111-3 0  9998,2 53604  53.2156 107.7141 0001472  97.4774 262.6386 15.08853807 90451,6917.838,95.437,540.721,538.685,0.0
53604.0,STARLINK-4690,PAYLOAD,2024-04-16 09:24:15,15.08846998,0.0001853,53.2166,106.8212,95.3491,264.7712,0.00016405,2.324e-05,0.0,0 STARLINK-4690,1 53604U 22104S   24107.39184030  .00002324  00000-0  16405-3 0  9999,2 53604  53.2166 106.8212 0001853  95.3491 264.7712 15.08846998 90489,6917.859,95.437,541.006,538.442,0.0
53604.0,STARLINK-4690,PAYLOAD,2024-04-17 04:28:52,15.08843185,0.0001686,53.2161,103.2528,96.7024,263.416,0.00025744,3.812e-05,0.0,0 STARLINK-4690,1 53604U 22104S   24108.18672164  .00003812  00000-0  25744-3 0  9996,2 53604  53.2161 103.2528 0001686  96.7024 263.4160 15.08843185 90608,6917.871,95.437,540.902,538.569,0.0
53604.0,STARLINK-4690,PAYLOAD,2024-04-17 09:15:02,15.08841681,0.0001565,53.2166,102.3609,97.3666,262.7504,3.2618e-05,2.31e-06,0.0,0 STARLINK-4690,1 53604U 22104S   24108.38544193  .00000231  00000-0  32618-4 0  9999,2 53604  53.2166 102.3609 0001565  97.3666 262.7504 15.08841681 91321,6917.875,95.437,540.823,538.658,0.0
53604.0,STARLINK-4690,PAYLOAD,2024-04-18 04:19:40,15.08834894,0.0001569,53.2164,98.7921,98.8705,261.2465,7.7212e-05,9.41e-06,0.0,0 STARLINK-4690,1 53604U 22104S   24109.18032770  .00000941  00000-0  77212-4 0  9998,2 53604  53.2164  98.7921 0001569  98.8705 261.2465 15.08834894 90752,6917.896,95.438,540.846,538.676,0.0
53604.0,STARLINK-4690,PAYLOAD,2024-04-18 09:05:49,15.08834348,0.0001506,53.2163,97.8992,118.3358,241.7786,1.796e-05,-2e-08,0.0,0 STARLINK-4690,1 53604U 22104S   24109.37904736 -.00000002  00000-0  17960-4 0  9992,2 53604  53.2163  97.8992 0001506 118.3358 241.7786 15.08834348 91475,6917.898,95.438,540.805,538.721,0.0
53604.0,STARLINK-4690,PAYLOAD,2024-04-19 05:45:50,15.08840034,0.0001345,53.2172,94.034,110.6475,249.4662,0.00013517,1.864e-05,0.0,0 STARLINK-4690,1 53604U 22104S   24110.24016437  .00001864  00000-0  13517-3 0  9991,2 53604  53.2172  94.0340 0001345 110.6475 249.4662 15.08840034 90912,6917.88,95.438,540.676,538.815,0.0
53604.0,STARLINK-4690,PAYLOAD,2024-04-20 04:01:10,15.08903983,0.0001746,53.2165,89.8716,28.6139,331.4949,0.00092818,0.00014541,0.0,0 STARLINK-4690,1 53604U 22104S   24111.16748351  .00014541  00000-0  92818-3 0  9997,2 53604  53.2165  89.8716 0001746  28.6139 331.4949 15.08903983 91052,6917.685,95.434,540.758,538.342,0.0
53604.0,STARLINK-4690,PAYLOAD,2024-04-20 08:47:22,15.08843606,0.0001242,53.2161,88.9809,102.1271,257.986,-0.00022092,-3.802e-05,0.0,0 STARLINK-4690,1 53604U 22104S   24111.36622779 -.00003802  00000-0 -22092-3 0  9991,2 53604  53.2161  88.9809 0001242 102.1271 257.9860 15.08843606 91089,6917.869,95.437,540.594,538.875,0.0
53604.0,STARLINK-4690,PAYLOAD,2024-04-21 03:52:01,15.08809002,0.0001378,53.216,85.4059,101.1753,258.9394,-0.00073261,-0.00011918,0.0,0 STARLINK-4690,1 53604U 22104S   24112.16112750 -.00011918  00000-0 -73261-3 0  9994,2 53604  53.2160  85.4059 0001378 101.1753 258.9394 15.08809002 91200,6917.975,95.44,540.793,538.887,0.0
53604.0,STARLINK-4690,PAYLOAD,2024-04-21 08:38:11,15.0880531,0.0001348,53.2166,84.5247,101.4895,258.6248,-0.00068481,-0.0001116,0.0,0 STARLINK-4690,1 53604U 22104S   24112.35985387 -.00011160  00000-0 -68481-3 0  9996,2 53604  53.2166  84.5247 0001348 101.4895 258.6248 15.08805310 91924,6917.986,95.44,540.784,538.919,0.0
53604.0,STARLINK-4690,PAYLOAD,2024-04-22 03:42:49,15.08824199,0.0002014,53.2169,80.9509,99.7757,260.3462,-0.00010952,-2.03e-05,0.0,0 STARLINK-4690,1 53604U 22104S   24113.15473914 -.00002030  00000-0 -10952-3 0  9999,2 53604  53.2169  80.9509 0002014  99.7757 260.3462 15.08824199 91356,6917.929,95.439,541.187,538.4,0.0
53604.0,STARLINK-4690,PAYLOAD,2024-04-22 05:18:12,15.08838021,0.0001628,53.2171,80.6557,101.9548,258.1627,0.00025412,3.758e-05,0.0,0 STARLINK-4690,1 53604U 22104S   24113.22097636  .00003758  00000-0  25412-3 0  9993,2 53604  53.2171  80.6557 0001628 101.9548 258.1627 15.08838021 91361,6917.886,95.438,540.878,538.625,0.0
53604.0,STARLINK-4690,PAYLOAD,2024-04-23 05:09:00,15.08831565,0.0001705,53.217,76.1961,80.3902,279.7282,0.0011234,0.00017632,0.0,0 STARLINK-4690,1 53604U 22104S   24114.21459298  .00017632  00000-0  11234-2 0  9991,2 53604  53.2170  76.1961 0001705  80.3902 279.7282 15.08831565 91518,6917.906,95.438,540.951,538.592,0.0
53604.0,STARLINK-4690,PAYLOAD,2024-04-23 21:02:50,15.08856922,0.0001527,53.2169,73.2243,96.2356,263.8811,0.00015454,2.173e-05,0.0,0 STARLINK-4690,1 53604U 22104S   24114.87697320  .00002173  00000-0  15454-3 0  9996,2 53604  53.2169  73.2243 0001527  96.2356 263.8811 15.08856922 91615,6917.829,95.436,540.75,538.637,0.0
53604.0,STARLINK-4690,PAYLOAD,2024-04-24 06:35:09,15.08856614,0.0001514,53.2172,71.4357,99.7363,260.38,0.00012052,1.631e-05,0.0,0 STARLINK-4690,1 53604U 22104S   24115.27441018  .00001631  00000-0  12052-3 0  9991,2 53604  53.2172  71.4357 0001514  99.7363 260.3800 15.08856614 92368,6917.83,95.437,540.742,538.647,0.0
53604.0,STARLINK-4690,PAYLOAD,2024-04-24 20:53:37,15.08847422,0.0001807,53.2174,68.7571,115.0286,245.0894,-7.6169e-06,-4.09e-06,0.0,0 STARLINK-4690,1 53604U 22104S   24115.87057144 -.00000409  00000-0 -76169-5 0  9995,2 53604  53.2174  68.7571 0001807 115.0286 245.0894 15.08847422 91761,6917.858,95.437,540.973,538.473,0.0
53604.0,STARLINK-4690,PAYLOAD,2024-04-25 03:15:10,15.08838518,0.0001491,53.2167,67.5688,113.559,246.5559,-9.144e-05,-1.743e-05,0.0,0 STARLINK-4690,1 53604U 22104S   24116.13553529 -.00001743  00000-0 -91440-4 0  9993,2 53604  53.2167  67.5688 0001491 113.5590 246.5559 15.08838518 91804,6917.885,95.438,540.781,538.718,0.0
53604.0,STARLINK-4690,PAYLOAD,2024-04-25 06:25:56,15.08849941,0.0001547,53.2173,66.9733,120.2877,239.8268,-0.0001347,-2.432e-05,0.0,0 STARLINK-4690,1 53604U 22104S   24116.26801370 -.00002432  00000-0 -13470-3 0  9999,2 53604  53.2173  66.9733 0001547 120.2877 239.8268 15.08849941 92513,6917.85,95.437,540.785,538.645,0.0
